#aV2016  6 12  0  0  0.00000000     288 DD+AD WGS84 FIT  NGA
## 1901      0.00000000   300.00000000 57551 0.0000000000000
+   31     1  2  3  5  6  7  8  9 10 11 12 13 14 15 16 17 18
+         19 20 21 22 23 24 25 26 27 28 29 30 31 32  0  0  0
+          0  0  0  0  0  0  0  0  0  0  0  0  0  0  0  0  0
+          0  0  0  0  0  0  0  0  0  0  0  0  0  0  0  0  0
+          0  0  0  0  0  0  0  0  0  0  0  0  0  0  0  0  0
++         2  2  2  2  2  2  2  2  2  2  2  2  2  2  2  2  2
++         2  2  2  2  2  2  2  2  2  2  2  2  2  2  0  0  0
++         0  0  0  0  0  0  0  0  0  0  0  0  0  0  0  0  0
++         0  0  0  0  0  0  0  0  0  0  0  0  0  0  0  0  0
++         0  0  0  0  0  0  0  0  0  0  0  0  0  0  0  0  0
%c cc cc ccc ccc cccc cccc cccc cccc ccccc ccccc ccccc ccccc
%c cc cc ccc ccc cccc cccc cccc cccc ccccc ccccc ccccc ccccc
%f  0.0000000  0.000000000  0.00000000000  0.000000000000000
%f  0.0000000  0.000000000  0.00000000000  0.000000000000000
%i    0    0    0    0      0      0      0      0         0
%i    0    0    0    0      0      0      0      0         0
/*      NGA, ST. LOUIS,MO.                                  
/*   EPHEMERIS COMPUTED FROM 2 DAYS OF DATA                 
/*   EPOCHA v2.4 SMOOTHER                                   
/*   G1762 IERS2010 SATAF SATAPC                            
*  2016  6 12  5 45  0.00000000
P  1 -13456.777390  22271.538138  -4719.448739     23.366404                    
V  1  -5898.532743   2893.012874  31237.459419      0.012359                    
P  2  19718.200751 -10447.393274 -13657.579820    585.986210                    
V  2  -8257.886453  16587.375372 -24228.507741     -0.025478                    
P  3  -7887.781508  13909.630273 -21200.447163    -66.514666                    
V  3 -26588.457330  -4400.154984   7001.356921     -0.034164                    
P  5  24126.582825  -4430.463171  10372.279125   -113.509329                    
V  5  12765.869987   4414.756763 -27431.033246      0.029517                    
P  6  15091.947019   4695.707618 -21333.512670    203.574407                    
V  6 -16197.003725  21741.877879  -6663.817291      0.053901                    
P  7   -182.127876  19636.569164  17824.175212    448.983336                    
V  7 -15604.805966  16301.792754 -18663.432407     -0.023812                    
P  8  -9573.646137  14051.055672  20444.375635    -38.698927                    
V  8 -10739.934107 -23534.020593  11210.111114     -0.014499                    
P  9   6514.506389  25234.123520  -5082.268895    147.007484                    
V  9  -5169.055944  -4841.519233 -30758.742108      0.072853                    
P 10 -21558.673987 -10866.534026  11170.331162    -43.574017                    
V 10  14328.638756   -467.119721  27183.279906     -0.082653                    
P 11 -10730.503365  23782.882842   4310.326023   -650.466798                    
V 11  -2808.597048  -7325.383583  29635.916218     -0.027500                    
P 12  11420.344834 -11787.532260 -20966.293806    382.496371                    
V 12  25665.581512   5732.894316  11032.345232      0.010805                    
P 13  13990.036298  -5319.578814  21819.216743    -24.155027                    
V 13   7555.244191  26929.244196   1627.075683     -0.025463                    
P 14 -15735.558285 -15075.630293 -15040.021856    -18.901668                    
V 14  -4050.530094 -19158.294598  22884.673227     -0.020461                    
P 15   7687.367221 -16675.945653  18944.823084   -314.919037                    
V 15  12259.350518  21346.333759  14072.340416     -0.015975                    
P 16 -24708.267442   1430.796659  10049.202797    -11.409583                    
V 16 -12175.055641  -4042.974627 -28677.675331      0.024451                    
P 17  14369.728549  19710.729945 -10401.989485   -204.012148                    
V 17   2642.598579  13501.605971  28159.141327     -0.000663                    
P 18 -10748.467225 -15696.538832  19175.575174    525.565045                    
V 18  23300.077521    950.407171  13994.628429      0.039827                    
P 19  16134.135730  10650.451981 -18289.653698   -525.503237                    
V 19   5088.014958  22306.801280  18073.352186      0.001353                    
P 20  11575.598864 -13907.310681  19308.418474    417.924138                    
V 20  24827.056473   2975.592216 -12600.742576      0.023039                    
P 21  -4042.836613 -18463.689663  19324.581428   -525.568068                    
V 21  15031.501070 -17665.680820 -14540.659462     -0.010984                    
P 22 -17155.062974  10994.382104 -16860.304568    321.884533                    
V 22 -21565.725489  -4743.946854  18461.352466     -0.086038                    
P 23  -1242.610767  22572.525634 -13380.027054   -177.767723                    
V 23  -9315.180215 -15131.401518 -24746.906884     -0.016009                    
P 24  15159.529062 -21655.210189  -1055.591644    -18.443702                    
V 24   3448.735117    968.259037  31591.329313     -0.005762                    
P 25  -2373.852499 -15173.970376 -21818.991290   -188.667561                    
V 25  27087.616105   3579.321065  -5281.607965     -0.070162                    
P 26 -26328.223141  -3698.403327   -273.827827   -393.206846                    
V 26    705.536931  -2727.029042 -31708.540904     -0.113077                    
P 27 -15174.590925   2006.860355  21686.605435    102.608562                    
V 27 -10160.216321 -25629.122737  -4563.041451      0.041992                    
P 28  19390.942977  13138.531185  13187.540409    529.561200                    
V 28 -15586.380324  -2055.402739  26183.878175      0.027239                    
P 29  -2881.322377 -25185.172866  -7994.449738    656.756792                    
V 29   5244.616797   8914.779479 -29910.497540     -0.003344                    
P 30   8212.462355  13549.997736  21295.003142    132.432424                    
V 30 -18528.194216  19793.218055  -5549.662362      0.027690                    
P 31 -17002.814487  -1351.930284 -20354.378733    264.336108                    
V 31  16052.224401 -20394.103585 -11641.973865     -0.019164                    
P 32 -16129.148607 -17482.495444 -11821.436515    -22.948868                    
V 32  -3495.192160 -14808.298670  26626.933448     -0.078909                    
EOF
